IRIDIUM 150             
1 43257U 18030J   24023.83230154  .00000514  00000+0  17637-3 0  9996
2 43257  86.3975 296.3002 0001650  82.4735 277.6648 14.34221717304698
IRIDIUM 143             
1 43258U 18030K   24023.81327854  .00000181  00000+0  57522-4 0  9997
2 43258  86.3979 296.3660 0001710  90.1449 269.9943 14.34218088304620
IRIDIUM 161             
1 43478U 18047C   24023.65906136  .00000098  00000+0  23152-4 0  9996
2 43478  86.4471  94.4094 0002174  94.4459 265.6990 14.43295181298854
IRIDIUM 152             
1 43479U 18047D   24023.71622964  .00000480  00000+0  16444-3 0  9998
2 43479  86.3949  94.2458 0002068  97.9781 262.1649 14.34218578297008
IRIDIUM 147             
1 43480U 18047E   24023.72257367  .00000469  00000+0  16045-3 0  9996
2 43480  86.3949  94.2328 0002243  86.7952 273.3501 14.34217467297004
IRIDIUM 110             
1 43481U 18047F   24023.72891507  .00000152  00000+0  47227-4 0  9993
2 43481  86.3952  94.2995 0002230  81.9356 278.2093 14.34218300296994
IRIDIUM 162             
1 43482U 18047G   24023.72212316  .00000611  00000+0  17539-3 0  9991
2 43482  86.4473  94.2858 0002176  93.2262 266.9188 14.43312570298853
IRIDIUM 160             
1 43569U 18061A   24023.60498299  .00000185  00000+0  58831-4 0  9993
2 43569  86.3934  62.6975 0002632  96.7997 263.3498 14.34218195287872
